NORAD_CAT_ID,OBJECT_NAME,OBJECT_TYPE,EPOCH,MEAN_MOTION,ECCENTRICITY,INCLINATION,RA_OF_ASC_NODE,ARG_OF_PERICENTER,MEAN_ANOMALY,BSTAR,MEAN_MOTION_DOT,MEAN_MOTION_DDOT,TLE_LINE0,TLE_LINE1,TLE_LINE2,SEMIMAJOR_AXIS,PERIOD,APOGEE,PERIGEE,DECAYED
54778.0,STARLINK-5450,PAYLOAD,2024-07-15 17:35:48,15.08842866,0.0001257,53.2157,211.4725,90.5369,269.5767,9.3597e-05,1.202e-05,0.0,0 STARLINK-5450,1 54778U 22175W   24197.73320128  .00001202  00000-0  93597-4 0  9999,2 54778  53.2157 211.4725 0001257  90.5369 269.5767 15.08842866 87099,6917.872,95.437,540.606,538.867,0.0
54778.0,STARLINK-5450,PAYLOAD,2024-07-16 04:43:31,15.08833949,0.000139,53.2162,209.3925,95.4204,264.6947,4.3973e-05,4.12e-06,0.0,0 STARLINK-5450,1 54778U 22175W   24198.19688855  .00000412  00000-0  43973-4 0  9999,2 54778  53.2162 209.3925 0001390  95.4204 264.6947 15.08833949 87169,6917.899,95.438,540.725,538.802,0.0
54778.0,STARLINK-5450,PAYLOAD,2024-07-16 07:54:17,15.08834267,0.0001391,53.2161,208.7978,95.3698,264.7453,4.2532e-05,3.89e-06,0.0,0 STARLINK-5450,1 54778U 22175W   24198.32936858  .00000389  00000-0  42532-4 0  9996,2 54778  53.2161 208.7978 0001391  95.3698 264.7453 15.08834267 89345,6917.898,95.438,540.725,538.801,0.0
54778.0,STARLINK-5450,PAYLOAD,2024-07-17 09:20:27,15.08835295,0.0001442,53.2161,204.04,95.4598,264.6559,5.0234e-05,5.12e-06,0.0,0 STARLINK-5450,1 54778U 22175W   24199.38921055  .00000512  00000-0  50234-4 0  9992,2 54778  53.2161 204.0400 0001442  95.4598 264.6559 15.08835295 87347,6917.895,95.438,540.757,538.762,0.0
54778.0,STARLINK-5450,PAYLOAD,2024-07-18 04:25:06,15.08827923,0.0001461,53.2163,200.4715,100.1585,259.9572,1.3673e-05,-7e-07,0.0,0 STARLINK-5450,1 54778U 22175W   24200.18410156 -.00000070  00000-0  13673-4 0  9994,2 54778  53.2163 200.4715 0001461 100.1585 259.9572 15.08827923 87463,6917.917,95.438,540.793,538.772,0.0
54778.0,STARLINK-5450,PAYLOAD,2024-07-18 09:11:15,15.08829298,0.0001343,53.2155,199.5781,91.5444,268.5702,7.5987e-06,-1.67e-06,0.0,0 STARLINK-5450,1 54778U 22175W   24200.38282183 -.00000167  00000-0  75987-5 0  9997,2 54778  53.2155 199.5781 0001343  91.5444 268.5702 15.08829298 89652,6917.913,95.438,540.707,538.849,0.0
54778.0,STARLINK-5450,PAYLOAD,2024-07-18 17:08:11,15.08835275,0.0001368,53.2157,198.0913,87.2946,272.8203,5.2622e-05,5.5e-06,0.0,0 STARLINK-5450,1 54778U 22175W   24200.71401876  .00000550  00000-0  52622-4 0  9991,2 54778  53.2157 198.0913 0001368  87.2946 272.8203 15.08835275 87543,6917.895,95.438,540.706,538.813,0.0
54778.0,STARLINK-5450,PAYLOAD,2024-07-19 07:26:39,15.08842399,0.0001387,53.2159,195.4151,85.9464,274.1686,0.00011759,1.584e-05,0.0,0 STARLINK-5450,1 54778U 22175W   24201.31017421  .00001584  00000-0  11759-3 0  9990,2 54778  53.2159 195.4151 0001387  85.9464 274.1686 15.08842399 87636,6917.873,95.437,540.698,538.779,0.0
54778.0,STARLINK-5450,PAYLOAD,2024-07-19 16:58:57,15.08845755,0.0001383,53.2162,193.6307,86.5761,273.5389,0.00015798,2.228e-05,0.0,0 STARLINK-5450,1 54778U 22175W   24201.70760974  .00002228  00000-0  15798-3 0  9994,2 54778  53.2162 193.6307 0001383  86.5761 273.5389 15.08845755 89854,6917.863,95.437,540.685,538.771,0.0
54778.0,STARLINK-5450,PAYLOAD,2024-07-20 08:52:48,15.0885075,0.0001355,53.216,190.6569,87.9275,272.1873,0.0002131,3.106e-05,0.0,0 STARLINK-5450,1 54778U 22175W   24202.37000534  .00003106  00000-0  21310-3 0  9990,2 54778  53.2160 190.6569 0001355  87.9275 272.1873 15.08850750 87798,6917.848,95.437,540.65,538.775,0.0
54778.0,STARLINK-5450,PAYLOAD,2024-07-20 16:49:43,15.08855055,0.0001361,53.2159,189.1703,87.6977,272.4171,0.00022106,3.233e-05,0.0,0 STARLINK-5450,1 54778U 22175W   24202.70120169  .00003233  00000-0  22106-3 0  9999,2 54778  53.2159 189.1703 0001361  87.6977 272.4171 15.08855055 90007,6917.834,95.437,540.641,538.758,0.0
54778.0,STARLINK-5450,PAYLOAD,2024-07-21 03:57:26,15.08847983,0.0001459,53.2162,187.0888,114.3047,245.8097,8.6387e-05,1.087e-05,0.0,0 STARLINK-5450,1 54778U 22175W   24203.16488702  .00001087  00000-0  86387-4 0  9997,2 54778  53.2162 187.0888 0001459 114.3047 245.8097 15.08847983 87914,6917.856,95.437,540.73,538.712,0.0
54778.0,STARLINK-5450,PAYLOAD,2024-07-21 08:43:35,15.08846193,0.0001402,53.2164,186.1963,115.7607,244.353,1.4137e-05,-6.3e-07,0.0,0 STARLINK-5450,1 54778U 22175W   24203.36360792 -.00000063  00000-0  14137-4 0  9995,2 54778  53.2164 186.1963 0001402 115.7607 244.3530 15.08846193 90108,6917.861,95.437,540.696,538.757,0.0
54778.0,STARLINK-5450,PAYLOAD,2024-07-22 03:48:13,15.08844931,0.0001573,53.2174,182.6261,112.5078,247.6081,-2.6729e-05,-7.13e-06,0.0,0 STARLINK-5450,1 54778U 22175W   24204.15848735 -.00000713  00000-0 -26729-4 0  9994,2 54778  53.2174 182.6261 0001573 112.5078 247.6081 15.08844931 88064,6917.865,95.437,540.818,538.642,0.0
54778.0,STARLINK-5450,PAYLOAD,2024-07-22 05:23:36,15.08844462,0.0001482,53.2167,182.3305,115.1847,244.9299,-3.6327e-05,-8.66e-06,0.0,0 STARLINK-5450,1 54778U 22175W   24204.22472751 -.00000866  00000-0 -36327-4 0  9997,2 54778  53.2167 182.3305 0001482 115.1847 244.9299 15.08844462 90236,6917.867,95.437,540.757,538.707,0.0
54778.0,STARLINK-5450,PAYLOAD,2024-07-22 22:52:50,15.0883733,0.0001336,53.2164,179.058,112.3098,247.8036,8.0536e-05,9.94e-06,0.0,0 STARLINK-5450,1 54778U 22175W   24204.95336736  .00000994  00000-0  80536-4 0  9990,2 54778  53.2164 179.0580 0001336 112.3098 247.8036 15.08837330 90345,6917.889,95.438,540.678,538.829,0.0
54778.0,STARLINK-5450,PAYLOAD,2024-07-23 05:14:23,15.08837187,0.0001257,53.2168,177.8706,97.3719,262.7416,9.2365e-05,1.182e-05,0.0,0 STARLINK-5450,1 54778U 22175W   24205.21832886  .00001182  00000-0  92365-4 0  9990,2 54778  53.2168 177.8706 0001257  97.3719 262.7416 15.08837187 88221,6917.889,95.438,540.624,538.884,0.0
54778.0,STARLINK-5450,PAYLOAD,2024-07-23 14:46:41,15.08846181,0.0001299,53.2174,176.087,99.8921,260.2218,0.00011653,1.567e-05,0.0,0 STARLINK-5450,1 54778U 22175W   24205.61576221  .00001567  00000-0  11653-3 0  9999,2 54778  53.2174 176.0870 0001299  99.8921 260.2218 15.08846181 90443,6917.861,95.437,540.625,538.828,0.0
54778.0,STARLINK-5450,PAYLOAD,2024-07-23 22:43:38,15.08833585,0.0002105,53.2179,174.6061,115.0437,245.0774,2.1831e-05,5.9e-07,0.0,0 STARLINK-5450,1 54778U 22175W   24205.94697594  .00000059  00000-0  21831-4 0  9997,2 54778  53.2179 174.6061 0002105 115.0437 245.0774 15.08833585 90491,6917.9,95.438,541.221,538.309,0.0
54778.0,STARLINK-5450,PAYLOAD,2024-07-24 05:05:12,15.0882479,0.0001376,53.2171,173.4103,97.6552,262.4596,-5.2151e-05,-1.117e-05,0.0,0 STARLINK-5450,1 54778U 22175W   24206.21194529 -.00001117  00000-0 -52151-4 0  9995,2 54778  53.2171 173.4103 0001376  97.6552 262.4596 15.08824790 88376,6917.927,95.439,540.744,538.84,0.0
54778.0,STARLINK-5450,PAYLOAD,2024-07-25 04:55:59,15.08838224,0.0001538,53.2175,168.9511,102.8597,257.2567,0.00010495,1.383e-05,0.0,0 STARLINK-5450,1 54778U 22175W   24207.20554545  .00001383  00000-0  10495-3 0  9990,2 54778  53.2175 168.9511 0001538 102.8597 257.2567 15.08838224 88524,6917.886,95.438,540.815,538.687,0.0
54778.0,STARLINK-5450,PAYLOAD,2024-07-25 06:31:22,15.08838672,0.0001523,53.2175,168.6536,97.0605,263.056,0.00011023,1.467e-05,0.0,0 STARLINK-5450,1 54778U 22175W   24207.27178588  .00001467  00000-0  11023-3 0  9997,2 54778  53.2175 168.6536 0001523  97.0605 263.0560 15.08838672 90693,6917.884,95.438,540.803,538.696,0.0
54778.0,STARLINK-5450,PAYLOAD,2024-07-26 04:46:45,15.08847683,0.0001566,53.2168,164.4864,99.2439,260.8731,0.00033626,5.069e-05,0.0,0 STARLINK-5450,1 54778U 22175W   24208.19913599  .00005069  00000-0  33626-3 0  9993,2 54778  53.2168 164.4864 0001566  99.2439 260.8731 15.08847683 88671,6917.857,95.437,540.805,538.639,0.0
54778.0,STARLINK-5450,PAYLOAD,2024-07-26 06:22:08,15.0885157,0.0001604,53.2173,164.189,94.548,265.5695,0.00037678,5.715e-05,0.0,0 STARLINK-5450,1 54778U 22175W   24208.26537530  .00005715  00000-0  37678-3 0  9997,2 54778  53.2173 164.1890 0001604  94.5480 265.5695 15.08851570 90843,6917.845,95.437,540.82,538.6,0.0
54778.0,STARLINK-5450,PAYLOAD,2024-07-26 14:19:03,15.08865266,0.0001642,53.2167,162.7004,89.485,270.6331,0.00053791,8.289e-05,0.0,0 STARLINK-5450,1 54778U 22175W   24208.59657101  .00008289  00000-0  53791-3 0  9993,2 54778  53.2167 162.7004 0001642  89.4850 270.6331 15.08865266 88739,6917.803,95.436,540.804,538.532,0.0
54778.0,STARLINK-5450,PAYLOAD,2024-07-27 04:37:32,15.08850853,0.0001596,53.2168,160.0292,95.5916,264.5258,3.5964e-05,2.85e-06,0.0,0 STARLINK-5450,1 54778U 22175W   24209.19273607  .00000285  00000-0  35964-4 0  9996,2 54778  53.2168 160.0292 0001596  95.5916 264.5258 15.08850853 88825,6917.847,95.437,540.816,538.608,0.0
54778.0,STARLINK-5450,PAYLOAD,2024-07-27 20:31:23,15.08849595,0.0001555,53.2161,157.0543,96.4494,263.6676,-9.9962e-06,-4.47e-06,0.0,0 STARLINK-5450,1 54778U 22175W   24209.85513059 -.00000447  00000-0 -99962-5 0  9998,2 54778  53.2161 157.0543 0001555  96.4494 263.6676 15.08849595 91086,6917.851,95.437,540.792,538.64,0.0
54778.0,STARLINK-5450,PAYLOAD,2024-07-28 02:52:56,15.08841025,0.0001586,53.2179,155.8635,96.1811,263.9362,-0.00013923,-2.503e-05,0.0,0 STARLINK-5450,1 54778U 22175W   24210.12009352 -.00002503  00000-0 -13923-3 0  9992,2 54778  53.2179 155.8635 0001586  96.1811 263.9362 15.08841025 88965,6917.877,95.437,540.839,538.645,0.0
54778.0,STARLINK-5450,PAYLOAD,2024-07-28 14:00:37,15.08845669,0.0001574,53.2177,153.7825,93.3905,266.7267,-7.5695e-05,-1.493e-05,0.0,0 STARLINK-5450,1 54778U 22175W   24210.58377261 -.00001493  00000-0 -75695-4 0  9991,2 54778  53.2177 153.7825 0001574  93.3905 266.7267 15.08845669 91193,6917.863,95.437,540.817,538.639,0.0
54778.0,STARLINK-5450,PAYLOAD,2024-07-29 02:43:44,15.08828315,0.000138,53.2187,151.4049,107.9894,252.1249,0.00033908,5.111e-05,0.0,0 STARLINK-5450,1 54778U 22175W   24211.11370459  .00005111  00000-0  33908-3 0  9992,2 54778  53.2187 151.4049 0001380 107.9894 252.1249 15.08828315 89118,6917.916,95.438,540.736,538.826,0.0
